[{"OBJECT_NAME":"YUBILEINY (RS30)","OBJECT_ID":"2008-025A","EPOCH":"2026-02-01T21:28:39.819648","MEAN_MOTION":12.43174499,"ECCENTRICITY":0.00184124,"INCLINATION":82.5004,"RA_OF_ASC_NODE":79.6034,"ARG_OF_PERICENTER":244.8579,"MEAN_ANOMALY":115.0591,"EPHEMERIS_TYPE":0,"CLASSIFICATION_TYPE":"U","NORAD_CAT_ID":32953,"ELEMENT_SET_NO":999,"REV_AT_EPOCH":80288,"BSTAR":0.00048067437,"MEAN_MOTION_DOT":7.7e-7,"MEAN_MOTION_DDOT":0},{"OBJECT_NAME":"FENGYUN 3A","OBJECT_ID":"2008-026A","EPOCH":"2026-02-01T20:35:58.911072","MEAN_MOTION":14.19534456,"ECCENTRICITY":0.00091155,"INCLINATION":98.6756,"RA_OF_ASC_NODE":336.3248,"ARG_OF_PERICENTER":151.4597,"MEAN_ANOMALY":208.708,"EPHEMERIS_TYPE":0,"CLASSIFICATION_TYPE":"U","NORAD_CAT_ID":32958,"ELEMENT_SET_NO":999,"REV_AT_EPOCH":91620,"BSTAR":7.0130478e-5,"MEAN_MOTION_DOT":1.05e-6,"MEAN_MOTION_DDOT":0},{"OBJECT_NAME":"HUANJING 1A (HJ-1A)","OBJECT_ID":"2008-041A","EPOCH":"2026-02-01T22:59:40.557984","MEAN_MOTION":14.8359574,"ECCENTRICITY":0.0017935,"INCLINATION":97.658,"RA_OF_ASC_NODE":24.1374,"ARG_OF_PERICENTER":219.3325,"MEAN_ANOMALY":140.6588,"EPHEMERIS_TYPE":0,"CLASSIFICATION_TYPE":"U","NORAD_CAT_ID":33320,"ELEMENT_SET_NO":999,"REV_AT_EPOCH":93835,"BSTAR":0.00014736477,"MEAN_MOTION_DOT":1.167e-5,"MEAN_MOTION_DDOT":0},{"OBJECT_NAME":"HUANJING 1B (HJ-1B)","OBJECT_ID":"2008-041B","EPOCH":"2026-02-01T22:29:00.872160","MEAN_MOTION":14.83002146,"ECCENTRICITY":0.00349989,"INCLINATION":97.6431,"RA_OF_ASC_NODE":27.6777,"ARG_OF_PERICENTER":267.5041,"MEAN_ANOMALY":92.2166,"EPHEMERIS_TYPE":0,"CLASSIFICATION_TYPE":"U","NORAD_CAT_ID":33321,"ELEMENT_SET_NO":999,"REV_AT_EPOCH":93836,"BSTAR":0.00020288826,"MEAN_MOTION_DOT":1.614e-5,"MEAN_MOTION_DDOT":0},{"OBJECT_NAME":"SHIJIAN-6 03A (SJ-6 03A)","OBJECT_ID":"2008-053A","EPOCH":"2026-02-01T23:23:49.085088","MEAN_MOTION":15.15524677,"ECCENTRICITY":0.00131683,"INCLINATION":97.8572,"RA_OF_ASC_NODE":61.6324,"ARG_OF_PERICENTER":114.2457,"MEAN_ANOMALY":246.0152,"EPHEMERIS_TYPE":0,"CLASSIFICATION_TYPE":"U","NORAD_CAT_ID":33408,"ELEMENT_SET_NO":999,"REV_AT_EPOCH":94247,"BSTAR":0.00018172395,"MEAN_MOTION_DOT":3.378e-5,"MEAN_MOTION_DDOT":0},{"OBJECT_NAME":"SHIJIAN-6 03B (SJ-6 03B)","OBJECT_ID":"2008-053B","EPOCH":"2026-02-01T23:28:45.816384","MEAN_MOTION":15.03619151,"ECCENTRICITY":0.00207708,"INCLINATION":97.8679,"RA_OF_ASC_NODE":50.6151,"ARG_OF_PERICENTER":133.9716,"MEAN_ANOMALY":226.3226,"EPHEMERIS_TYPE":0,"CLASSIFICATION_TYPE":"U","NORAD_CAT_ID":33409,"ELEMENT_SET_NO":999,"REV_AT_EPOCH":94242,"BSTAR":0.00022290283,"MEAN_MOTION_DOT":2.998e-5,"MEAN_MOTION_DDOT":0},{"OBJECT_NAME":"CHUANGXIN 1-02 (CX-1-02)","OBJECT_ID":"2008-056B","EPOCH":"2026-02-01T23:43:39.569952","MEAN_MOTION":14.30120258,"ECCENTRICITY":0.0014371,"INCLINATION":98.6286,"RA_OF_ASC_NODE":60.5119,"ARG_OF_PERICENTER":173.2085,"MEAN_ANOMALY":186.9294,"EPHEMERIS_TYPE":0,"CLASSIFICATION_TYPE":"U","NORAD_CAT_ID":33434,"ELEMENT_SET_NO":999,"REV_AT_EPOCH":89929,"BSTAR":-5.06211e-6,"MEAN_MOTION_DOT":-5.7e-7,"MEAN_MOTION_DDOT":0},{"OBJECT_NAME":"STARS (KUKAI)","OBJECT_ID":"2009-002G","EPOCH":"2026-02-01T20:05:23.430336","MEAN_MOTION":14.94533175,"ECCENTRICITY":0.00069231,"INCLINATION":98.1426,"RA_OF_ASC_NODE":334.8533,"ARG_OF_PERICENTER":254.7873,"MEAN_ANOMALY":105.2581,"EPHEMERIS_TYPE":0,"CLASSIFICATION_TYPE":"U","NORAD_CAT_ID":33498,"ELEMENT_SET_NO":999,"REV_AT_EPOCH":91825,"BSTAR":0.00045243412,"MEAN_MOTION_DOT":4.83e-5,"MEAN_MOTION_DDOT":0},{"OBJECT_NAME":"KKS-1 (KISEKI)","OBJECT_ID":"2009-002H","EPOCH":"2026-02-01T21:37:53.645376","MEAN_MOTION":14.8267726,"ECCENTRICITY":0.00084265,"INCLINATION":98.1193,"RA_OF_ASC_NODE":313.2562,"ARG_OF_PERICENTER":19.1319,"MEAN_ANOMALY":341.0209,"EPHEMERIS_TYPE":0,"CLASSIFICATION_TYPE":"U","NORAD_CAT_ID":33499,"ELEMENT_SET_NO":999,"REV_AT_EPOCH":91614,"BSTAR":0.00021964314,"MEAN_MOTION_DOT":1.716e-5,"MEAN_MOTION_DDOT":0},{"OBJECT_NAME":"NOAA 19","OBJECT_ID":"2009-005A","EPOCH":"2026-02-01T21:59:56.100192","MEAN_MOTION":14.13449476,"ECCENTRICITY":0.00144896,"INCLINATION":98.9681,"RA_OF_ASC_NODE":103.6144,"ARG_OF_PERICENTER":56.0701,"MEAN_ANOMALY":304.1847,"EPHEMERIS_TYPE":0,"CLASSIFICATION_TYPE":"U","NORAD_CAT_ID":33591,"ELEMENT_SET_NO":999,"REV_AT_EPOCH":87537,"BSTAR":5.9184296e-5,"MEAN_MOTION_DOT":6.6e-7,"MEAN_MOTION_DDOT":0},{"OBJECT_NAME":"UK-DMC 2","OBJECT_ID":"2009-041C","EPOCH":"2026-02-01T23:20:54.398112","MEAN_MOTION":14.75763556,"ECCENTRICITY":0.00013956,"INCLINATION":97.8594,"RA_OF_ASC_NODE":171.4461,"ARG_OF_PERICENTER":74.3841,"MEAN_ANOMALY":285.7523,"EPHEMERIS_TYPE":0,"CLASSIFICATION_TYPE":"U","NORAD_CAT_ID":35683,"ELEMENT_SET_NO":999,"REV_AT_EPOCH":88662,"BSTAR":0.00016364681,"MEAN_MOTION_DOT":1.071e-5,"MEAN_MOTION_DDOT":0},{"OBJECT_NAME":"METEOR-M 1","OBJECT_ID":"2009-049A","EPOCH":"2026-02-01T21:00:25.526880","MEAN_MOTION":14.23117838,"ECCENTRICITY":0.00022103,"INCLINATION":98.7208,"RA_OF_ASC_NODE":356.4546,"ARG_OF_PERICENTER":9.8065,"MEAN_ANOMALY":350.3156,"EPHEMERIS_TYPE":0,"CLASSIFICATION_TYPE":"U","NORAD_CAT_ID":35865,"ELEMENT_SET_NO":999,"REV_AT_EPOCH":85000,"BSTAR":6.9261258e-5,"MEAN_MOTION_DOT":1.12e-6,"MEAN_MOTION_DDOT":0},{"OBJECT_NAME":"OCEANSAT-2","OBJECT_ID":"2009-051A","EPOCH":"2026-02-01T22:43:40.062144","MEAN_MOTION":13.99642116,"ECCENTRICITY":0.0015516,"INCLINATION":98.2262,"RA_OF_ASC_NODE":33.3623,"ARG_OF_PERICENTER":258.8505,"MEAN_ANOMALY":101.0917,"EPHEMERIS_TYPE":0,"CLASSIFICATION_TYPE":"U","NORAD_CAT_ID":35931,"ELEMENT_SET_NO":999,"REV_AT_EPOCH":86041,"BSTAR":-6.284513e-5,"MEAN_MOTION_DOT":-1.3e-6,"MEAN_MOTION_DDOT":0},{"OBJECT_NAME":"SWISSCUBE","OBJECT_ID":"2009-051B","EPOCH":"2026-02-01T16:31:21.289440","MEAN_MOTION":14.62149582,"ECCENTRICITY":0.0005552,"INCLINATION":98.4135,"RA_OF_ASC_NODE":298.1874,"ARG_OF_PERICENTER":278.0146,"MEAN_ANOMALY":82.0424,"EPHEMERIS_TYPE":0,"CLASSIFICATION_TYPE":"U","NORAD_CAT_ID":35932,"ELEMENT_SET_NO":999,"REV_AT_EPOCH":86935,"BSTAR":0.00026747253,"MEAN_MOTION_DOT":1.296e-5,"MEAN_MOTION_DDOT":0},{"OBJECT_NAME":"BEESAT-1","OBJECT_ID":"2009-051C","EPOCH":"2026-02-01T16:45:04.857696","MEAN_MOTION":14.61439428,"ECCENTRICITY":0.00042052,"INCLINATION":98.4062,"RA_OF_ASC_NODE":298.1092,"ARG_OF_PERICENTER":296.8487,"MEAN_ANOMALY":63.2283,"EPHEMERIS_TYPE":0,"CLASSIFICATION_TYPE":"U","NORAD_CAT_ID":35933,"ELEMENT_SET_NO":999,"REV_AT_EPOCH":86939,"BSTAR":0.00025681605,"MEAN_MOTION_DOT":1.223e-5,"MEAN_MOTION_DDOT":0},{"OBJECT_NAME":"ITUPSAT1","OBJECT_ID":"2009-051E","EPOCH":"2026-02-01T16:59:47.422464","MEAN_MOTION":14.60181771,"ECCENTRICITY":0.00065224,"INCLINATION":98.415,"RA_OF_ASC_NODE":297.4497,"ARG_OF_PERICENTER":306.0866,"MEAN_ANOMALY":53.9729,"EPHEMERIS_TYPE":0,"CLASSIFICATION_TYPE":"U","NORAD_CAT_ID":35935,"ELEMENT_SET_NO":999,"REV_AT_EPOCH":86896,"BSTAR":0.00024214894,"MEAN_MOTION_DOT":1.118e-5,"MEAN_MOTION_DDOT":0}]
